[{"OBJECT_NAME":"STARLINK-33780","OBJECT_ID":"2025-069AC","EPOCH":"2026-03-09T11:23:59.484192","MEAN_MOTION":15.30188672,"ECCENTRICITY":0.00012135,"INCLINATION":53.1585,"RA_OF_ASC_NODE":143.3268,"ARG_OF_PERICENTER":77.6329,"MEAN_ANOMALY":282.4807,"EPHEMERIS_TYPE":0,"CLASSIFICATION_TYPE":"U","NORAD_CAT_ID":63459,"ELEMENT_SET_NO":999,"REV_AT_EPOCH":5326,"BSTAR":0.00071430694,"MEAN_MOTION_DOT":0.00020849,"MEAN_MOTION_DDOT":0},{"OBJECT_NAME":"CZ-4B DEB","OBJECT_ID":"1999-057H","EPOCH":"2026-03-09T17:25:29.363520","MEAN_MOTION":15.25756771,"ECCENTRICITY":0.00339549,"INCLINATION":98.6728,"RA_OF_ASC_NODE":149.1557,"ARG_OF_PERICENTER":175.409,"MEAN_ANOMALY":184.7463,"EPHEMERIS_TYPE":0,"CLASSIFICATION_TYPE":"U","NORAD_CAT_ID":26121,"ELEMENT_SET_NO":999,"REV_AT_EPOCH":41150,"BSTAR":0.00075758105,"MEAN_MOTION_DOT":0.00019602,"MEAN_MOTION_DDOT":0}]
